GLOBALSTAR M023         
1 25621U 99004A   24267.42007010  .00000050  00000+0  85577-3 0  9992
2 25621  52.0095 145.7420 0009268 258.6022 272.6931 12.62474776182032
GLOBALSTAR M040         
1 25622U 99004B   24267.44959848 -.00000053  00000+0  28285-3 0  9997
2 25622  51.9907 149.4081 0001011 117.1146  54.7524 12.61984249181576
GLOBALSTAR M036         
1 25623U 99004C   24267.62470427 -.00000204  00000+0 -17622-2 0  9990
2 25623  51.9953 222.9101 0010475 262.4095 268.7887 11.86581126147337
GLOBALSTAR M038         
1 25624U 99004D   24267.60306678 -.00000067  00000+0  23342-3 0  9998
2 25624  51.9956 119.2929 0001239 191.7731 185.4547 12.32508596169509
GLOBALSTAR M022         
1 25649U 99012A   24267.52135580 -.00000067  00000+0  23463-3 0  9991
2 25649  52.0039 295.8184 0002396   7.7525 145.0827 12.02488380144293
GLOBALSTAR M041         
1 25650U 99012B   24267.43130058 -.00000122  00000+0 -47569-3 0  9994
2 25650  52.0008 169.3780 0002533 143.8967 216.2041 11.96659567146349
GLOBALSTAR M046         
1 25651U 99012C   24267.30001569 -.00000074  00000+0  16339-3 0  9991
2 25651  52.0034 256.2952 0002448  76.5353 297.5054 12.09398773151371
GLOBALSTAR M037         
1 25652U 99012D   24267.46108655 -.00000059  00000+0  25093-3 0  9993
2 25652  51.9992 276.3330 0001778 323.4483 187.6123 12.62419048177584
